CTC2_L_00185001-01
1 10000U 22920YP  26075.70042824  .00000000  00000+0  00000-0 0  9992
2 10000  80.0000   0.0000 0000000   0.0000   0.0000 14.79785908    10
CTC2_L_00185001-02
1 10001U 23743JG  26075.70042824  .00000000  00000+0  00000-0 0  9997
2 10001  80.0000   0.0000 0000000   0.0000  90.0000 14.79785908    10
CTC2_L_00185001-03
1 10002U 24287MC  26075.70042824  .00000000  00000+0  00000-0 0  9992
2 10002  80.0000   0.0000 0000000   0.0000 180.0000 14.79785908    11
CTC2_L_00185001-04
1 10003U 22742IF  26075.70042824  .00000000  00000+0  00000-0 0  9997
2 10003  80.0000   0.0000 0000000   0.0000 270.0000 14.79785908    12
CTC2_L_00185002-01
1 10004U 22774DC  26075.70042824  .00000000  00000+0  00000-0 0  9993
2 10004  80.0000  12.0000 0000000   0.0000  12.0000 14.79785908    10
CTC2_L_00185002-02
1 10005U 26525RF  26075.70042824  .00000000  00000+0  00000-0 0  9992
2 10005  80.0000  12.0000 0000000   0.0000 102.0000 14.79785908    11
CTC2_L_00185002-03
1 10006U 26467EB  26075.70042824  .00000000  00000+0  00000-0 0  9998
2 10006  80.0000  12.0000 0000000   0.0000 192.0000 14.79785908    11
CTC2_L_00185002-04
1 10007U 25232SB  26075.70042824  .00000000  00000+0  00000-0 0  9998
2 10007  80.0000  12.0000 0000000   0.0000 282.0000 14.79785908    12
CTC2_L_00185003-01
1 10008U 26234QR  26075.70042824  .00000000  00000+0  00000-0 0  9992
2 10008  80.0000  24.0000 0000000   0.0000  24.0000 14.79785908    10
CTC2_L_00185003-02
1 10009U 24376LO  26075.70042824  .00000000  00000+0  00000-0 0  9998
2 10009  80.0000  24.0000 0000000   0.0000 114.0000 14.79785908    11
CTC2_L_00185003-03
1 10010U 23210YD  26075.70042824  .00000000  00000+0  00000-0 0  9996
2 10010  80.0000  24.0000 0000000   0.0000 204.0000 14.79785908    13
CTC2_L_00185003-04
1 10011U 24323AC  26075.70042824  .00000000  00000+0  00000-0 0  9993
2 10011  80.0000  24.0000 0000000   0.0000 294.0000 14.79785908    13
CTC2_L_00185004-01
1 10012U 23969DP  26075.70042824  .00000000  00000+0  00000-0 0  9999
2 10012  80.0000  36.0000 0000000   0.0000  36.0000 14.79785908    11
CTC2_L_00185004-02
1 10013U 23118RW  26075.70042824  .00000000  00000+0  00000-0 0  9996
2 10013  80.0000  36.0000 0000000   0.0000 126.0000 14.79785908    12
CTC2_L_00185004-03
1 10014U 25672RX  26075.70042824  .00000000  00000+0  00000-0 0  9994
2 10014  80.0000  36.0000 0000000   0.0000 216.0000 14.79785908    13
CTC2_L_00185004-04
1 10015U 24346QN  26075.70042824  .00000000  00000+0  00000-0 0  9992
2 10015  80.0000  36.0000 0000000   0.0000 306.0000 14.79785908    14
CTC2_L_00185005-01
1 10016U 26617AI  26075.70042824  .00000000  00000+0  00000-0 0  9996
2 10016  80.0000  48.0000 0000000   0.0000  48.0000 14.79785908    11
CTC2_L_00185005-02
1 10017U 22701JP  26075.70042824  .00000000  00000+0  00000-0 0  9997
2 10017  80.0000  48.0000 0000000   0.0000 138.0000 14.79785908    12
CTC2_L_00185005-03
1 10018U 23740PN  26075.70042824  .00000000  00000+0  00000-0 0  9992
2 10018  80.0000  48.0000 0000000   0.0000 228.0000 14.79785908    13
CTC2_L_00185005-04
1 10019U 22469IA  26075.70042824  .00000000  00000+0  00000-0 0  9990
2 10019  80.0000  48.0000 0000000   0.0000 318.0000 14.79785908    14
CTC2_L_00185006-01
1 10020U 26173EZ  26075.70042824  .00000000  00000+0  00000-0 0  9998
2 10020  80.0000  60.0000 0000000   0.0000  60.0000 14.79785908    14
CTC2_L_00185006-02
1 10021U 22916QL  26075.70042824  .00000000  00000+0  00000-0 0  9990
2 10021  80.0000  60.0000 0000000   0.0000 150.0000 14.79785908    15
CTC2_L_00185006-03
1 10022U 25625JO  26075.70042824  .00000000  00000+0  00000-0 0  9991
2 10022  80.0000  60.0000 0000000   0.0000 240.0000 14.79785908    16
CTC2_L_00185006-04
1 10023U 22371ED  26075.70042824  .00000000  00000+0  00000-0 0  9997
2 10023  80.0000  60.0000 0000000   0.0000 330.0000 14.79785908    17
CTC2_L_00185007-01
1 10024U 25581EB  26075.70042824  .00000000  00000+0  00000-0 0  9994
2 10024  80.0000  72.0000 0000000   0.0000  72.0000 14.79785908    14
CTC2_L_00185007-02
1 10025U 23025RT  26075.70042824  .00000000  00000+0  00000-0 0  9996
2 10025  80.0000  72.0000 0000000   0.0000 162.0000 14.79785908    15
CTC2_L_00185007-03
1 10026U 24120RF  26075.70042824  .00000000  00000+0  00000-0 0  9994
2 10026  80.0000  72.0000 0000000   0.0000 252.0000 14.79785908    16
CTC2_L_00185007-04
1 10027U 26101MX  26075.70042824  .00000000  00000+0  00000-0 0  9996
2 10027  80.0000  72.0000 0000000   0.0000 342.0000 14.79785908    17
CTC2_L_00185008-01
1 10028U 26592UX  26075.70042824  .00000000  00000+0  00000-0 0  9991
2 10028  80.0000  84.0000 0000000   0.0000  84.0000 14.79785908    14
CTC2_L_00185008-02
1 10029U 22822HQ  26075.70042824  .00000000  00000+0  00000-0 0  9994
2 10029  80.0000  84.0000 0000000   0.0000 174.0000 14.79785908    15
CTC2_L_00185008-03
1 10030U 24355XF  26075.70042824  .00000000  00000+0  00000-0 0  9999
2 10030  80.0000  84.0000 0000000   0.0000 264.0000 14.79785908    17
CTC2_L_00185008-04
1 10031U 26407RG  26075.70042824  .00000000  00000+0  00000-0 0  9990
2 10031  80.0000  84.0000 0000000   0.0000 354.0000 14.79785908    18
CTC2_L_00185009-01
1 10032U 24801CR  26075.70042824  .00000000  00000+0  00000-0 0  9997
2 10032  80.0000  96.0000 0000000   0.0000  96.0000 14.79785908    15
CTC2_L_00185009-02
1 10033U 22789N   26075.70042824  .00000000  00000+0  00000-0 0  9991
2 10033  80.0000  96.0000 0000000   0.0000 186.0000 14.79785908    16
CTC2_L_00185009-03
1 10034U 25835MJ  26075.70042824  .00000000  00000+0  00000-0 0  9997
2 10034  80.0000  96.0000 0000000   0.0000 276.0000 14.79785908    17
CTC2_L_00185009-04
1 10035U 24989J   26075.70042824  .00000000  00000+0  00000-0 0  9997
2 10035  80.0000  96.0000 0000000   0.0000   6.0000 14.79785908    19
CTC2_L_00185010-01
1 10036U 23636DO  26075.70042824  .00000000  00000+0  00000-0 0  9996
2 10036  80.0000 108.0000 0000000   0.0000 108.0000 14.79785908    17
CTC2_L_00185010-02
1 10037U 22027ZG  26075.70042824  .00000000  00000+0  00000-0 0  9990
2 10037  80.0000 108.0000 0000000   0.0000 198.0000 14.79785908    17
CTC2_L_00185010-03
1 10038U 24830DT  26075.70042824  .00000000  00000+0  00000-0 0  9995
2 10038  80.0000 108.0000 0000000   0.0000 288.0000 14.79785908    18
CTC2_L_00185010-04
1 10039U 24874OD  26075.70042824  .00000000  00000+0  00000-0 0  9994
2 10039  80.0000 108.0000 0000000   0.0000  18.0000 14.79785908    10
CTC2_L_00185011-01
1 10040U 22661L   26075.70042824  .00000000  00000+0  00000-0 0  9998
2 10040  80.0000 120.0000 0000000   0.0000 120.0000 14.79785908    10
CTC2_L_00185011-02
1 10041U 25952SN  26075.70042824  .00000000  00000+0  00000-0 0  9995
2 10041  80.0000 120.0000 0000000   0.0000 210.0000 14.79785908    11
CTC2_L_00185011-03
1 10042U 24579EH  26075.70042824  .00000000  00000+0  00000-0 0  9990
2 10042  80.0000 120.0000 0000000   0.0000 300.0000 14.79785908    12
CTC2_L_00185011-04
1 10043U 25232T   26075.70042824  .00000000  00000+0  00000-0 0  9998
2 10043  80.0000 120.0000 0000000   0.0000  30.0000 14.79785908    13
CTC2_L_00185012-01
1 10044U 22382WR  26075.70042824  .00000000  00000+0  00000-0 0  9992
2 10044  80.0000 132.0000 0000000   0.0000 132.0000 14.79785908    10
CTC2_L_00185012-02
1 10045U 24594SA  26075.70042824  .00000000  00000+0  00000-0 0  9990
2 10045  80.0000 132.0000 0000000   0.0000 222.0000 14.79785908    11
CTC2_L_00185012-03
1 10046U 23361N   26075.70042824  .00000000  00000+0  00000-0 0  9992
2 10046  80.0000 132.0000 0000000   0.0000 312.0000 14.79785908    12
CTC2_L_00185012-04
1 10047U 23004IU  26075.70042824  .00000000  00000+0  00000-0 0  9997
2 10047  80.0000 132.0000 0000000   0.0000  42.0000 14.79785908    13
CTC2_L_00185013-01
1 10048U 25508RR  26075.70042824  .00000000  00000+0  00000-0 0  9999
2 10048  80.0000 144.0000 0000000   0.0000 144.0000 14.79785908    10
CTC2_L_00185013-02
1 10049U 26651CL  26075.70042824  .00000000  00000+0  00000-0 0  9990
2 10049  80.0000 144.0000 0000000   0.0000 234.0000 14.79785908    11
CTC2_L_00185013-03
1 10050U 23414VP  26075.70042824  .00000000  00000+0  00000-0 0  9996
2 10050  80.0000 144.0000 0000000   0.0000 324.0000 14.79785908    13
CTC2_L_00185013-04
1 10051U 23357AY  26075.70042824  .00000000  00000+0  00000-0 0  9993
2 10051  80.0000 144.0000 0000000   0.0000  54.0000 14.79785908    14
CTC2_L_00185014-01
1 10052U 23413BW  26075.70042824  .00000000  00000+0  00000-0 0  9997
2 10052  80.0000 156.0000 0000000   0.0000 156.0000 14.79785908    11
CTC2_L_00185014-02
1 10053U 24221GO  26075.70042824  .00000000  00000+0  00000-0 0  9996
2 10053  80.0000 156.0000 0000000   0.0000 246.0000 14.79785908    12
CTC2_L_00185014-03
1 10054U 23852JF  26075.70042824  .00000000  00000+0  00000-0 0  9996
2 10054  80.0000 156.0000 0000000   0.0000 336.0000 14.79785908    13
CTC2_L_00185014-04
1 10055U 23884RK  26075.70042824  .00000000  00000+0  00000-0 0  9992
2 10055  80.0000 156.0000 0000000   0.0000  66.0000 14.79785908    14
CTC2_L_00185015-01
1 10056U 26642HP  26075.70042824  .00000000  00000+0  00000-0 0  9998
2 10056  80.0000 168.0000 0000000   0.0000 168.0000 14.79785908    11
CTC2_L_00185015-02
1 10057U 22523YN  26075.70042824  .00000000  00000+0  00000-0 0  9993
2 10057  80.0000 168.0000 0000000   0.0000 258.0000 14.79785908    12
CTC2_L_00185015-03
1 10058U 22555XQ  26075.70042824  .00000000  00000+0  00000-0 0  9999
2 10058  80.0000 168.0000 0000000   0.0000 348.0000 14.79785908    13
CTC2_L_00185015-04
1 10059U 23548EI  26075.70042824  .00000000  00000+0  00000-0 0  9993
2 10059  80.0000 168.0000 0000000   0.0000  78.0000 14.79785908    14
CTC2_L_00185016-01
1 10060U 22148KI  26075.70042824  .00000000  00000+0  00000-0 0  9990
2 10060  80.0000 180.0000 0000000   0.0000 180.0000 14.79785908    14
CTC2_L_00185016-02
1 10061U 25685XY  26075.70042824  .00000000  00000+0  00000-0 0  9990
2 10061  80.0000 180.0000 0000000   0.0000 270.0000 14.79785908    15
